NORAD_CAT_ID,OBJECT_NAME,OBJECT_TYPE,EPOCH,MEAN_MOTION,ECCENTRICITY,INCLINATION,RA_OF_ASC_NODE,ARG_OF_PERICENTER,MEAN_ANOMALY,BSTAR,MEAN_MOTION_DOT,MEAN_MOTION_DDOT,TLE_LINE0,TLE_LINE1,TLE_LINE2,SEMIMAJOR_AXIS,PERIOD,APOGEE,PERIGEE,DECAYED
52366.0,STARLINK-3808,PAYLOAD,2023-11-16 08:18:18,15.08853086,0.0001574,53.2167,19.5309,90.9941,269.1231,0.0004433,6.777e-05,0.0,0 STARLINK-3808,1 52366U 22045AM  23320.34604627  .00006777  00000-0  44330-3 0  9991,2 52366  53.2167  19.5309 0001574  90.9941 269.1231 15.08853086 88457,6917.84,95.437,540.794,538.617,0.0
52366.0,STARLINK-3808,PAYLOAD,2023-11-16 21:01:23,15.08835265,0.0001189,53.218,17.1535,102.4982,257.6143,-0.00011441,-2.108e-05,0.0,0 STARLINK-3808,1 52366U 22045AM  23320.87596753 -.00002108  00000-0 -11441-3 0  9992,2 52366  53.2180  17.1535 0001189 102.4982 257.6143 15.08835265 88535,6917.895,95.438,540.582,538.937,0.0
52366.0,STARLINK-3808,PAYLOAD,2023-11-17 03:22:56,15.08834301,0.0001779,53.2178,15.9635,91.5341,268.5855,-8.075e-05,-1.573e-05,0.0,0 STARLINK-3808,1 52366U 22045AM  23321.14093161 -.00001573  00000-0 -80750-4 0  9993,2 52366  53.2178  15.9635 0001779  91.5341 268.5855 15.08834301 88576,6917.898,95.438,540.994,538.532,0.0
52366.0,STARLINK-3808,PAYLOAD,2023-11-17 11:19:52,15.088313,0.0001649,53.2175,14.4763,94.7638,265.3542,-0.00013903,-2.5e-05,0.0,0 STARLINK-3808,1 52366U 22045AM  23321.47213323 -.00002500  00000-0 -13903-3 0  9999,2 52366  53.2175  14.4763 0001649  94.7638 265.3542 15.08831300 88629,6917.907,95.438,540.913,538.631,0.0
52366.0,STARLINK-3808,PAYLOAD,2023-11-17 20:52:11,15.08832454,0.0001628,53.2171,12.6916,92.6173,267.5005,-5.9435e-05,-1.234e-05,0.0,0 STARLINK-3808,1 52366U 22045AM  23321.86957519 -.00001234  00000-0 -59435-4 0  9998,2 52366  53.2171  12.6916 0001628  92.6173 267.5005 15.08832454 88688,6917.903,95.438,540.895,538.642,0.0
52366.0,STARLINK-3808,PAYLOAD,2023-11-18 11:10:39,15.0883878,0.0001435,53.2162,10.0155,90.1,270.0156,0.00015692,2.21e-05,0.0,0 STARLINK-3808,1 52366U 22045AM  23322.46573655  .00002210  00000-0  15692-3 0  9999,2 52366  53.2162  10.0155 0001435  90.1000 270.0156 15.08838780 88777,6917.884,95.438,540.742,538.756,0.0
52366.0,STARLINK-3808,PAYLOAD,2023-11-18 20:42:58,15.08837868,0.0001416,53.2159,8.2301,93.7956,266.3198,0.00025514,3.775e-05,0.0,0 STARLINK-3808,1 52366U 22045AM  23322.86317917  .00003775  00000-0  25514-3 0  9991,2 52366  53.2159   8.2301 0001416  93.7956 266.3198 15.08837868 88830,6917.887,95.438,540.731,538.772,0.0
52366.0,STARLINK-3808,PAYLOAD,2023-11-19 09:26:03,15.08848318,0.0001415,53.2161,5.8513,91.0827,269.0327,0.00047978,7.358e-05,0.0,0 STARLINK-3808,1 52366U 22045AM  23323.39309830  .00007358  00000-0  47978-3 0  9994,2 52366  53.2161   5.8513 0001415  91.0827 269.0327 15.08848318 88913,6917.855,95.437,540.699,538.741,0.0
52366.0,STARLINK-3808,PAYLOAD,2023-11-20 02:55:18,15.0884434,0.0001467,53.2159,2.5809,87.7666,272.3494,0.00018731,2.695e-05,0.0,0 STARLINK-3808,1 52366U 22045AM  23324.12173809  .00002695  00000-0  18731-3 0  9995,2 52366  53.2159   2.5809 0001467  87.7666 272.3494 15.08844340 89028,6917.867,95.437,540.747,538.717,0.0
52366.0,STARLINK-3808,PAYLOAD,2023-11-20 09:16:50,15.08847759,0.0001406,53.216,1.3914,88.1032,272.0121,0.0002172,3.171e-05,0.0,0 STARLINK-3808,1 52366U 22045AM  23324.38669607  .00003171  00000-0  21720-3 0  9991,2 52366  53.2160   1.3914 0001406  88.1032 272.0121 15.08847759 89064,6917.857,95.437,540.694,538.749,0.0
52366.0,STARLINK-3808,PAYLOAD,2023-11-21 09:07:37,15.08842261,0.0001469,53.2162,356.9315,83.2029,276.913,5.3984e-05,5.71e-06,0.0,0 STARLINK-3808,1 52366U 22045AM  23325.38029711  .00000571  00000-0  53984-4 0  9997,2 52366  53.2162 356.9315 0001469  83.2029 276.9130 15.08842261 89214,6917.873,95.437,540.755,538.722,0.0
52366.0,STARLINK-3808,PAYLOAD,2023-11-22 07:23:01,15.08846979,0.0001509,53.216,352.768,84.1644,275.952,0.0001763,2.519e-05,0.0,0 STARLINK-3808,1 52366U 22045AM  23326.30765408  .00002519  00000-0  17630-3 0  9991,2 52366  53.2160 352.7680 0001509  84.1644 275.9520 15.08846979 89356,6917.859,95.437,540.768,538.68,0.0
52366.0,STARLINK-3808,PAYLOAD,2023-11-23 00:52:15,15.08840527,0.0001659,53.2162,349.4979,102.6,257.5177,8.0882e-05,9.99e-06,0.0,0 STARLINK-3808,1 52366U 22045AM  23327.03629571  .00000999  00000-0  80882-4 0  9992,2 52366  53.2162 349.4979 0001659 102.6000 257.5177 15.08840527 89469,6917.879,95.438,540.891,538.596,0.0
52366.0,STARLINK-3808,PAYLOAD,2023-11-23 07:13:48,15.08840719,0.0001587,53.2169,348.3084,99.8818,260.2354,8.3606e-05,1.043e-05,0.0,0 STARLINK-3808,1 52366U 22045AM  23327.30125622  .00001043  00000-0  83606-4 0  9998,2 52366  53.2169 348.3084 0001587  99.8818 260.2354 15.08840719 89501,6917.878,95.438,540.841,538.645,0.0
52366.0,STARLINK-3808,PAYLOAD,2023-11-24 02:18:27,15.08833345,0.0001675,53.216,344.7363,127.1911,232.9234,-7.8919e-05,-1.544e-05,0.0,0 STARLINK-3808,1 52366U 22045AM  23328.09614585 -.00001544  00000-0 -78919-4 0  9995,2 52366  53.2160 344.7363 0001675 127.1911 232.9234 15.08833345 89622,6917.901,95.438,540.924,538.607,0.0
52366.0,STARLINK-3808,PAYLOAD,2023-11-24 08:40:00,15.08829069,0.0001573,53.2169,343.5495,95.7432,264.3739,-8.3264e-05,-1.613e-05,0.0,0 STARLINK-3808,1 52366U 22045AM  23328.36111281 -.00001613  00000-0 -83264-4 0  9996,2 52366  53.2169 343.5495 0001573  95.7432 264.3739 15.08829069 89660,6917.914,95.438,540.867,538.691,0.0
52366.0,STARLINK-3808,PAYLOAD,2023-11-24 19:47:41,15.08823777,0.0001632,53.2172,341.4655,112.7033,247.4132,0.00016515,2.34e-05,0.0,0 STARLINK-3808,1 52366U 22045AM  23328.82478900  .00002340  00000-0  16515-3 0  9991,2 52366  53.2172 341.4655 0001632 112.7033 247.4132 15.08823777 89739,6917.93,95.439,540.924,538.666,0.0
52366.0,STARLINK-3808,PAYLOAD,2023-11-25 00:33:50,15.08836948,0.0001826,53.2171,340.5748,116.1145,244.0035,8.8472e-05,1.12e-05,0.0,0 STARLINK-3808,1 52366U 22045AM  23329.02350544  .00001120  00000-0  88472-4 0  9994,2 52366  53.2171 340.5748 0001826 116.1145 244.0035 15.08836948 89760,6917.89,95.438,541.018,538.492,0.0
52366.0,STARLINK-3808,PAYLOAD,2023-11-25 08:30:45,15.08852166,0.0001687,53.2169,339.0885,105.0528,255.0651,0.00022829,3.348e-05,0.0,0 STARLINK-3808,1 52366U 22045AM  23329.35469542  .00003348  00000-0  22829-3 0  9996,2 52366  53.2169 339.0885 0001687 105.0528 255.0651 15.08852166 89811,6917.843,95.437,540.875,538.541,0.0
52366.0,STARLINK-3808,PAYLOAD,2023-11-26 00:24:37,15.08845318,0.0001605,53.2161,336.1145,94.476,265.6416,0.00040074,6.096e-05,0.0,0 STARLINK-3808,1 52366U 22045AM  23330.01710399  .00006096  00000-0  40074-3 0  9995,2 52366  53.2161 336.1145 0001605  94.4760 265.6416 15.08845318 89917,6917.864,95.437,540.839,538.619,0.0
52366.0,STARLINK-3808,PAYLOAD,2023-11-26 06:46:09,15.08858034,0.0001673,53.2157,334.925,100.6608,259.4572,0.00048913,7.509e-05,0.0,0 STARLINK-3808,1 52366U 22045AM  23330.28205725  .00007509  00000-0  48913-3 0  9996,2 52366  53.2157 334.9250 0001673 100.6608 259.4572 15.08858034 89958,6917.825,95.436,540.848,538.533,0.0
52366.0,STARLINK-3808,PAYLOAD,2023-11-27 03:26:13,15.08807871,0.0002523,53.2167,331.0616,35.2067,324.9091,-0.0004155,-6.889e-05,0.0,0 STARLINK-3808,1 52366U 22045AM  23331.14320938 -.00006889  00000-0 -41550-3 0  9998,2 52366  53.2167 331.0616 0002523  35.2067 324.9091 15.08807871 90083,6917.979,95.44,541.589,538.098,0.0
52366.0,STARLINK-3808,PAYLOAD,2023-11-27 09:47:44,15.08829875,0.0001762,53.2165,329.8697,99.0697,261.0495,-4.0184e-05,-9.27e-06,0.0,0 STARLINK-3808,1 52366U 22045AM  23331.40815727 -.00000927  00000-0 -40184-4 0  9992,2 52366  53.2165 329.8697 0001762  99.0697 261.0495 15.08829875 90128,6917.911,95.438,540.995,538.557,0.0
52366.0,STARLINK-3808,PAYLOAD,2023-11-28 03:16:58,15.08854904,0.0001795,53.2176,326.6008,113.4095,246.7086,0.00055867,8.618e-05,0.0,0 STARLINK-3808,1 52366U 22045AM  23332.13679098  .00008618  00000-0  55867-3 0  9998,2 52366  53.2176 326.6008 0001795 113.4095 246.7086 15.08854904 90239,6917.835,95.437,540.942,538.458,0.0
52366.0,STARLINK-3808,PAYLOAD,2023-11-28 09:38:31,15.08874892,0.000169,53.2154,325.4079,87.6796,272.439,0.0017884,0.00028316,0.0,0 STARLINK-3808,1 52366U 22045AM  23332.40175253  .00028316  00000-0  17884-2 0  9995,2 52366  53.2154 325.4079 0001690  87.6796 272.4390 15.08874892 90270,6917.774,95.435,540.808,538.47,0.0
52366.0,STARLINK-3808,PAYLOAD,2023-11-29 09:29:18,15.08852264,0.0001909,53.2163,320.9461,114.3021,245.8171,0.00050328,7.733e-05,0.0,0 STARLINK-3808,1 52366U 22045AM  23333.39534796  .00007733  00000-0  50328-3 0  9996,2 52366  53.2163 320.9461 0001909 114.3021 245.8171 15.08852264 90424,6917.843,95.437,541.029,538.387,0.0
52366.0,STARLINK-3808,PAYLOAD,2023-11-30 02:58:32,15.08837904,0.0001953,53.2163,317.6701,107.7893,252.3313,0.000132,1.813e-05,0.0,0 STARLINK-3808,1 52366U 22045AM  23334.12399300  .00001813  00000-0  13200-3 0  9999,2 52366  53.2163 317.6701 0001953 107.7893 252.3313 15.08837904 90533,6917.887,95.438,541.103,538.401,0.0
52366.0,STARLINK-3808,PAYLOAD,2023-12-01 04:24:43,15.0883847,0.0001838,53.2167,312.9165,102.1449,257.9749,0.00012386,1.684e-05,0.0,0 STARLINK-3808,1 52366U 22045AM  23335.18383740  .00001684  00000-0  12386-3 0  9997,2 52366  53.2167 312.9165 0001838 102.1449 257.9749 15.08838470 90697,6917.885,95.438,541.022,538.479,0.0
52366.0,STARLINK-3808,PAYLOAD,2023-12-01 09:10:52,15.08839814,0.0001919,53.2169,312.0207,104.8503,255.2702,0.0001612,2.278e-05,0.0,0 STARLINK-3808,1 52366U 22045AM  23335.38255717  .00002278  00000-0  16120-3 0  9991,2 52366  53.2169 312.0207 0001919 104.8503 255.2702 15.08839814 90724,6917.881,95.438,541.073,538.418,0.0
52366.0,STARLINK-3808,PAYLOAD,2023-12-02 07:26:15,15.08882567,0.0001687,53.217,307.8618,101.9192,258.199,0.00083515,0.00013044,0.0,0 STARLINK-3808,1 52366U 22045AM  23336.30989719  .00013044  00000-0  83515-3 0  9995,2 52366  53.2170 307.8618 0001687 101.9192 258.1990 15.08882567 90867,6917.75,95.435,540.782,538.448,0.0
